{
    "links": {
        "self": "http://www.neowsapp.com/rest/v1/neo/3437790?api_key=iIulBulltgU6a56xZRHN4H3l9WmuAYTsLGpBGhQ2"
    },
    "id": "3437790",
    "neo_reference_id": "3437790",
    "name": "(2008 VZ3)",
    "designation": "2008 VZ3",
    "nasa_jpl_url": "http://ssd.jpl.nasa.gov/sbdb.cgi?sstr=3437790",
    "absolute_magnitude_h": 24.4,
    "estimated_diameter": {
        "kilometers": {
            "estimated_diameter_min": 0.0350392641,
            "estimated_diameter_max": 0.0783501764
        },
        "meters": {
            "estimated_diameter_min": 35.0392641108,
            "estimated_diameter_max": 78.3501764334
        },
        "miles": {
            "estimated_diameter_min": 0.0217723826,
            "estimated_diameter_max": 0.0486845275
        },
        "feet": {
            "estimated_diameter_min": 114.9582192654,
            "estimated_diameter_max": 257.0543928497
        }
    },
    "is_potentially_hazardous_asteroid": false,
    "close_approach_data": [
        {
            "close_approach_date": "2008-11-22",
            "close_approach_date_full": "2008-Nov-22 12:36",
            "epoch_date_close_approach": 1227357360000,
            "relative_velocity": {
                "kilometers_per_second": "10.6129274065",
                "kilometers_per_hour": "38206.5386632578",
                "miles_per_hour": "23740.0573155115"
            },
            "miss_distance": {
                "astronomical": "0.0146493386",
                "lunar": "5.6985927154",
                "kilometers": "2191509.851468782",
                "miles": "1361741.0769299116"
            },
            "orbiting_body": "Earth"
        },
        {
            "close_approach_date": "2014-05-10",
            "close_approach_date_full": "2014-May-10 21:18",
            "epoch_date_close_approach": 1399756680000,
            "relative_velocity": {
                "kilometers_per_second": "14.8723932023",
                "kilometers_per_hour": "53540.6155282271",
                "miles_per_hour": "33268.056354192"
            },
            "miss_distance": {
                "astronomical": "0.040114433",
                "lunar": "15.604514437",
                "kilometers": "6001033.73305771",
                "miles": "3728869.451747998"
            },
            "orbiting_body": "Mars"
        }
    ],
    "orbital_data": {
        "orbit_id": "16",
        "orbit_determination_date": "2017-04-06 09:02:15",
        "first_observation_date": "2008-11-06",
        "last_observation_date": "2008-11-20",
        "data_arc_in_days": 14,
        "observations_used": 66,
        "orbit_uncertainty": "8",
        "minimum_orbit_intersection": ".0108651",
        "jupiter_tisserand_invariant": "3.825",
        "epoch_osculation": "2454779.5",
        "eccentricity": ".524876129722199",
        "semi_major_axis": "1.850539477150452",
        "inclination": "3.576146723502879",
        "ascending_node_longitude": "229.1250870931608",
        "orbital_period": "919.4877723613877",
        "perihelion_distance": ".8792354784855813",
        "perihelion_argument": "237.4916965747519",
        "aphelion_distance": "2.821843475815324",
        "perihelion_time": "2454827.201503544726",
        "mean_anomaly": "341.3237959304237",
        "mean_motion": ".3915223353927415",
        "equinox": "J2000",
        "orbit_class": {
            "orbit_class_type": "APO",
            "orbit_class_description": "Near-Earth asteroid orbits which cross the Earth’s orbit similar to that of 1862 Apollo",
            "orbit_class_range": "a (semi-major axis) > 1.0 AU; q (perihelion) < 1.017 AU"
        }
    },
    "is_sentry_object": false
}